IRIDIUM 119             
1 42959U 17061E   23287.85581515  .00000708  00000+0  24586-3 0  9996
2 42959  86.3940  73.2617 0001839  83.5804 276.5601 14.34217286314874
IRIDIUM 107             
1 42960U 17061F   23287.87484209  .00000745  00000+0  25904-3 0  9998
2 42960  86.3941  73.2692 0001783  90.4121 269.7279 14.34220694314891
IRIDIUM 132             
1 42961U 17061G   23287.81141830  .00000666  00000+0  23072-3 0  9999
2 42961  86.3940  73.2818 0001862  88.1116 272.0293 14.34217652314878
IRIDIUM 136             
1 42962U 17061H   23287.49428234  .00000634  00000+0  21938-3 0  9994
2 42962  86.3939  73.4165 0002135  85.7444 274.3996 14.34218794314845
IRIDIUM 139             
1 42963U 17061J   23287.84947490  .00000322  00000+0  10793-3 0  9995
2 42963  86.3940  73.3145 0001798  90.6482 269.4920 14.34216979314908
IRIDIUM 125             
1 42964U 17061K   23287.76701492  .00000560  00000+0  19288-3 0  9999
2 42964  86.3942  73.3922 0001904  86.0041 274.1372 14.34220535314900
IRIDIUM 135             
1 43070U 17083A   23287.74114639  .00000705  00000+0  24456-3 0  9995
2 43070  86.4030  10.1055 0002242 102.0028 258.1419 14.34216616304193
IRIDIUM 138             
1 43071U 17083B   23287.48743663  .00000781  00000+0  27183-3 0  9996
2 43071  86.4019   9.9596 0002013  88.3377 271.8049 14.34215818304145
